[
    {
        "Altitude(m)": 559576.6652840595,
        "Argument of Periapsis(deg)": 0.019868973332140504,
        "Eccentricity": 0.0,
        "Inclination(deg)": 53.0,
        "Latitude(deg)": 51.724030540640875,
        "Longitude(deg)": -119.14239030257976,
        "Mean Anomaly(deg)": 101.18387860273275,
        "RAAN(deg)": 234.97043010558403,
        "Satellite Name": "Starlink Shell 1 1038",
        "Satellite Number": 1038,
        "Semi-Major Axis(m)": 6931778.249405717,
        "Time(s)": 570
    },
    {
        "Altitude(m)": 559540.0130744494,
        "Argument of Periapsis(deg)": 0.02021755181165174,
        "Eccentricity": 0.0,
        "Inclination(deg)": 53.0,
        "Latitude(deg)": 51.56324269364718,
        "Longitude(deg)": -118.20994540656201,
        "Mean Anomaly(deg)": 101.81070980628945,
        "RAAN(deg)": 234.96991133550654,
        "Satellite Name": "Starlink Shell 1 1038",
        "Satellite Number": 1038,
        "Semi-Major Axis(m)": 6931778.249405717,
        "Time(s)": 580
    },
    {
        "Altitude(m)": 559501.5092861812,
        "Argument of Periapsis(deg)": 0.020566130291162974,
        "Eccentricity": 0.0,
        "Inclination(deg)": 53.0,
        "Latitude(deg)": 51.39443237713235,
        "Longitude(deg)": -117.28450886467337,
        "Mean Anomaly(deg)": 102.4375410098462,
        "RAAN(deg)": 234.96939256542913,
        "Satellite Name": "Starlink Shell 1 1038",
        "Satellite Number": 1038,
        "Semi-Major Axis(m)": 6931778.249405717,
        "Time(s)": 590
    },
    {
        "Altitude(m)": 559461.1772138821,
        "Argument of Periapsis(deg)": 0.020914708770674213,
        "Eccentricity": 0.0,
        "Inclination(deg)": 53.0,
        "Latitude(deg)": 51.217705624066625,
        "Longitude(deg)": -116.36632164652711,
        "Mean Anomaly(deg)": 103.06437221340289,
        "RAAN(deg)": 234.96887379535164,
        "Satellite Name": "Starlink Shell 1 1038",
        "Satellite Number": 1038,
        "Semi-Major Axis(m)": 6931778.249405717,
        "Time(s)": 600
    },
    {
        "Altitude(m)": 559419.0412754979,
        "Argument of Periapsis(deg)": 0.021263287250185448,
        "Eccentricity": 0.0,
        "Inclination(deg)": 53.0,
        "Latitude(deg)": 51.03317148890439,
        "Longitude(deg)": -115.45560829612532,
        "Mean Anomaly(deg)": 103.69120341695964,
        "RAAN(deg)": 234.96835502527412,
        "Satellite Name": "Starlink Shell 1 1038",
        "Satellite Number": 1038,
        "Semi-Major Axis(m)": 6931778.249405717,
        "Time(s)": 610
    },
    {
        "Altitude(m)": 559375.1270003053,
        "Argument of Periapsis(deg)": 0.021611865729696686,
        "Eccentricity": 0.0,
        "Inclination(deg)": 53.0,
        "Latitude(deg)": 50.8409417622056,
        "Longitude(deg)": -114.55257640525681,
        "Mean Anomaly(deg)": 104.31803462051633,
        "RAAN(deg)": 234.96783625519672,
        "Satellite Name": "Starlink Shell 1 1038",
        "Satellite Number": 1038,
        "Semi-Major Axis(m)": 6931778.249405717,
        "Time(s)": 620
    },
    {
        "Altitude(m)": 559329.4610164247,
        "Argument of Periapsis(deg)": 0.02196044420920792,
        "Eccentricity": 0.0,
        "Inclination(deg)": 53.0,
        "Latitude(deg)": 50.6411306881511,
        "Longitude(deg)": -113.65741784052187,
        "Mean Anomaly(deg)": 104.94486582407303,
        "RAAN(deg)": 234.96731748511922,
        "Satellite Name": "Starlink Shell 1 1038",
        "Satellite Number": 1038,
        "Semi-Major Axis(m)": 6931778.249405717,
        "Time(s)": 630
    },
    {
        "Altitude(m)": 559282.071037761,
        "Argument of Periapsis(deg)": 0.02230902268871916,
        "Eccentricity": 0.0,
        "Inclination(deg)": 53.0,
        "Latitude(deg)": 50.433854686271246,
        "Longitude(deg)": -112.77030751720658,
        "Mean Anomaly(deg)": 105.57169702762977,
        "RAAN(deg)": 234.96679871504173,
        "Satellite Name": "Starlink Shell 1 1038",
        "Satellite Number": 1038,
        "Semi-Major Axis(m)": 6931778.249405717,
        "Time(s)": 640
    },
    {
        "Altitude(m)": 559232.9858504193,
        "Argument of Periapsis(deg)": 0.022657601168230398,
        "Eccentricity": 0.0,
        "Inclination(deg)": 53.0,
        "Latitude(deg)": 50.21923207860452,
        "Longitude(deg)": -111.89140475822201,
        "Mean Anomaly(deg)": 106.19852823118647,
        "RAAN(deg)": 234.96627994496427,
        "Satellite Name": "Starlink Shell 1 1038",
        "Satellite Number": 1038,
        "Semi-Major Axis(m)": 6931778.249405717,
        "Time(s)": 650
    },
    {
        "Altitude(m)": 559182.2352985666,
        "Argument of Periapsis(deg)": 0.023006179647741636,
        "Eccentricity": 0.0,
        "Inclination(deg)": 53.0,
        "Latitude(deg)": 49.99738282337715,
        "Longitude(deg)": -111.02085303075216,
        "Mean Anomaly(deg)": 106.82535943474322,
        "RAAN(deg)": 234.96576117488678,
        "Satellite Name": "Starlink Shell 1 1038",
        "Satellite Number": 1038,
        "Semi-Major Axis(m)": 6931778.249405717,
        "Time(s)": 660
    },
    {
        "Altitude(m)": 559129.8502697926,
        "Argument of Periapsis(deg)": 0.023354758127252868,
        "Eccentricity": 0.0,
        "Inclination(deg)": 53.0,
        "Latitude(deg)": 49.76842825618169,
        "Longitude(deg)": -110.15877973647457,
        "Mean Anomaly(deg)": 107.45219063829991,
        "RAAN(deg)": 234.96524240480932,
        "Satellite Name": "Starlink Shell 1 1038",
        "Satellite Number": 1038,
        "Semi-Major Axis(m)": 6931778.249405717,
        "Time(s)": 670
    },
    {
        "Altitude(m)": 559075.8626799202,
        "Argument of Periapsis(deg)": 0.023703336606764106,
        "Eccentricity": 0.0,
        "Inclination(deg)": 53.0,
        "Latitude(deg)": 49.53249083951213,
        "Longitude(deg)": -109.30529756301823,
        "Mean Anomaly(deg)": 108.07902184185662,
        "RAAN(deg)": 234.96472363473185,
        "Satellite Name": "Starlink Shell 1 1038",
        "Satellite Number": 1038,
        "Semi-Major Axis(m)": 6931778.249405717,
        "Time(s)": 680
    },
    {
        "Altitude(m)": 559020.3054573268,
        "Argument of Periapsis(deg)": 0.024051915086275345,
        "Eccentricity": 0.0,
        "Inclination(deg)": 53.0,
        "Latitude(deg)": 49.28969392139061,
        "Longitude(deg)": -108.4605043656841,
        "Mean Anomaly(deg)": 108.70585304541335,
        "RAAN(deg)": 234.96420486465436,
        "Satellite Name": "Starlink Shell 1 1038",
        "Satellite Number": 1038,
        "Semi-Major Axis(m)": 6931778.249405717,
        "Time(s)": 690
    },
    {
        "Altitude(m)": 558963.2125267322,
        "Argument of Periapsis(deg)": 0.024400493565786583,
        "Eccentricity": 0.0,
        "Inclination(deg)": 53.0,
        "Latitude(deg)": 49.04016150370879,
        "Longitude(deg)": -107.62448308709708,
        "Mean Anomaly(deg)": 109.33268424897005,
        "RAAN(deg)": 234.96368609457687,
        "Satellite Name": "Starlink Shell 1 1038",
        "Satellite Number": 1038,
        "Semi-Major Axis(m)": 6931778.249405717,
        "Time(s)": 700
    },
    {
        "Altitude(m)": 558904.6187925063,
        "Argument of Periapsis(deg)": 0.024749072045297815,
        "Eccentricity": 0.0,
        "Inclination(deg)": 53.0,
        "Latitude(deg)": 48.78401802079243,
        "Longitude(deg)": -106.79730322254123,
        "Mean Anomaly(deg)": 109.9595154525268,
        "RAAN(deg)": 234.96316732449947,
        "Satellite Name": "Starlink Shell 1 1038",
        "Satellite Number": 1038,
        "Semi-Major Axis(m)": 6931778.249405717,
        "Time(s)": 710
    },
    {
        "Altitude(m)": 558844.5601214577,
        "Argument of Periapsis(deg)": 0.025097650524809053,
        "Eccentricity": 0.0,
        "Inclination(deg)": 53.0,
        "Latitude(deg)": 48.52138812858828,
        "Longitude(deg)": -105.97902080026056,
        "Mean Anomaly(deg)": 110.58634665608345,
        "RAAN(deg)": 234.96264855442197,
        "Satellite Name": "Starlink Shell 1 1038",
        "Satellite Number": 1038,
        "Semi-Major Axis(m)": 6931778.249405717,
        "Time(s)": 720
    },
    {
        "Altitude(m)": 558783.0733251605,
        "Argument of Periapsis(deg)": 0.02544622900432029,
        "Eccentricity": 0.0,
        "Inclination(deg)": 53.0,
        "Latitude(deg)": 48.252396504770836,
        "Longitude(deg)": -105.16967838478816,
        "Mean Anomaly(deg)": 111.2131778596402,
        "RAAN(deg)": 234.96212978434446,
        "Satellite Name": "Starlink Shell 1 1038",
        "Satellite Number": 1038,
        "Semi-Major Axis(m)": 6931778.249405717,
        "Time(s)": 730
    },
    {
        "Altitude(m)": 558720.1961417866,
        "Argument of Periapsis(deg)": 0.02579480748383153,
        "Eccentricity": 0.0,
        "Inclination(deg)": 53.0,
        "Latitude(deg)": 47.97716765997209,
        "Longitude(deg)": -104.36930661158684,
        "Mean Anomaly(deg)": 111.84000906319693,
        "RAAN(deg)": 234.96161101426702,
        "Satellite Name": "Starlink Shell 1 1038",
        "Satellite Number": 1038,
        "Semi-Major Axis(m)": 6931778.249405717,
        "Time(s)": 740
    },
    {
        "Altitude(m)": 558655.9672174574,
        "Argument of Periapsis(deg)": 0.026143385963342765,
        "Eccentricity": 0.0,
        "Inclination(deg)": 53.0,
        "Latitude(deg)": 47.695825760243096,
        "Longitude(deg)": -103.57792422290787,
        "Mean Anomaly(deg)": 112.46684026675364,
        "RAAN(deg)": 234.96109224418956,
        "Satellite Name": "Starlink Shell 1 1038",
        "Satellite Number": 1038,
        "Semi-Major Axis(m)": 6931778.249405717,
        "Time(s)": 750
    }
]